ISS (ZARYA)             
1 25544U 98067A   26083.16360592  .00014170  00000+0  26927-3 0  9992
2 25544  51.6345   0.8084 0006267 226.2093 133.8378 15.48514008558570
POISK                   
1 36086U 09060A   26083.16360592  .00014170  00000+0  26927-3 0  9990
2 36086  51.6345   0.8084 0006267 226.2093 133.8378 15.48514008557437
CSS (TIANHE)            
1 48274U 21035A   26083.23811462  .00020484  00000+0  23638-3 0  9994
2 48274  41.4662 119.5892 0004823   8.9107 351.1817 15.61417953279889
ISS (NAUKA)             
1 49044U 21066A   26083.16360592  .00014170  00000+0  26927-3 0  9998
2 49044  51.6345   0.8084 0006267 226.2093 133.8378 15.48514008557479
FREGAT DEB              
1 49271U 11037PF  26083.18784780  .00014609  00000+0  20667-1 0  9998
2 49271  51.6455 257.2233 0962718  92.6627 278.4636 12.40651154214495
CSS (WENTIAN)           
1 53239U 22085A   26083.23811462  .00020484  00000+0  23638-3 0  9997
2 53239  41.4662 119.5892 0004823   8.9107 351.1817 15.61417953279101
CSS (MENGTIAN)          
1 54216U 22143A   26083.23811462  .00020484  00000+0  23638-3 0  9998
2 54216  41.4662 119.5892 0004823   8.9107 351.1817 15.61417953279107
TIANZHOU-9              
1 64786U 25149A   26083.23811462  .00020484  00000+0  23638-3 0  9990
2 64786  41.4662 119.5892 0004823   8.9107 351.1817 15.61417953279100
PROGRESS-MS 32          
1 65586U 25204A   26083.16360592  .00014170  00000+0  26927-3 0  9995
2 65586  51.6345   0.8084 0006267 226.2093 133.8378 15.48514008554509
YOTSUBA-KULOVER         
1 65941U 98067XN  26082.96327371  .00332191  00000+0  11506-2 0  9994
2 65941  51.6197 342.8745 0005099 174.2801 185.8263 15.88031375 25769
BOTAN                   
1 65943U 98067XQ  26082.97212654  .00308939  00000+0  11098-2 0  9993
2 65943  51.6228 342.9564 0005691 173.8079 186.2997 15.87345825 25762
HRC MONOBLOCK CAMERA    
1 66052U 98067XR  26083.02236021  .00050192  00000+0  52922-3 0  9993
2 66052  51.6288 353.1138 0003860 158.8217 201.2938 15.63725759 24634
HTV-X1                  
1 66174U 25241A   26083.19239994  .00014323  00000+0  46147-3 0  9990
2 66174  51.6371   3.2073 0007403 227.4114 132.6244 15.32404592 23168
SZ-21 MODULE            
1 66515U 25246C   26082.18487837  .00043706  00000+0  35991-3 0  9995
2 66515  41.4734 120.2206 0000654 218.7155 141.3640 15.69572241 20198
SHENZHOU-22             
1 66645U 25272A   26083.23811462  .00020484  00000+0  23638-3 0  9993
2 66645  41.4662 119.5892 0004823   8.9107 351.1817 15.61417953279106
SOYUZ-MS 28             
1 66664U 25275A   26083.16360592  .00014170  00000+0  26927-3 0  9991
2 66664  51.6345   0.8084 0006267 226.2093 133.8378 15.48514008557713
